{
  "type": "FeatureCollection",
  "features": [
    {
      "type": "Feature",
      "properties": {
        "norad_id": 30453,
        "name": "FENGYUN 1C DEB",
        "group": "fengyun-1c-debris",
        "lat": -22.563275927551334,
        "lon": -133.10986355865305,
        "alt_km": 757.0824574622457,
        "timestamp": "2025-12-04T21:36:16.149463+00:00",
        "meta_object_name": "FENGYUN 1C DEB",
        "meta_object_id": "1999-025AFQ",
        "meta_epoch": "2025-12-04T16:18:54.092736",
        "meta_mean_motion": 14.24660968,
        "meta_eccentricity": 0.01152958,
        "meta_inclination": 98.8142,
        "meta_ra_of_asc_node": 50.3654,
        "meta_arg_of_pericenter": 249.558,
        "meta_mean_anomaly": 264.4079,
        "meta_ephemeris_type": 0,
        "meta_classification_type": "U",
        "meta_norad_cat_id": 30453,
        "meta_element_set_no": 999,
        "meta_rev_at_epoch": 97119,
        "meta_bstar": 0.0034861933,
        "meta_mean_motion_dot": 8.651e-05,
        "meta_mean_motion_ddot": 0,
        "tle_line1": "1 30453U 99025AFQ 25338.67979274  .00008651  00000+0  34862-2 0  9996",
        "tle_line2": "2 30453  98.8142  50.3654 0115295 249.5580 264.4079 14.24660968971193"
      },
      "geometry": {
        "type": "Point",
        "coordinates": [
          -133.10986355865305,
          -22.563275927551334
        ]
      }
    },
    {
      "type": "Feature",
      "properties": {
        "norad_id": 30454,
        "name": "FENGYUN 1C DEB",
        "group": "fengyun-1c-debris",
        "lat": 71.10097963025659,
        "lon": 154.50967605047686,
        "alt_km": 877.3076189227277,
        "timestamp": "2025-12-04T21:36:16.149473+00:00",
        "meta_object_name": "FENGYUN 1C DEB",
        "meta_object_id": "1999-025AFR",
        "meta_epoch": "2025-12-04T04:13:30.154080",
        "meta_mean_motion": 14.15273339,
        "meta_eccentricity": 0.01715232,
        "meta_inclination": 98.1337,
        "meta_ra_of_asc_node": 309.1575,
        "meta_arg_of_pericenter": 220.3487,
        "meta_mean_anomaly": 161.1643,
        "meta_ephemeris_type": 0,
        "meta_classification_type": "U",
        "meta_norad_cat_id": 30454,
        "meta_element_set_no": 999,
        "meta_rev_at_epoch": 95839,
        "meta_bstar": 0.0040828908,
        "meta_mean_motion_dot": 9.129e-05,
        "meta_mean_motion_ddot": 0,
        "tle_line1": "1 30454U 99025AFR 25338.17604345  .00009129  00000+0  40829-2 0  9997",
        "tle_line2": "2 30454  98.1337 309.1575 0171523 220.3487 161.1643 14.15273339958398"
      },
      "geometry": {
        "type": "Point",
        "coordinates": [
          154.50967605047686,
          71.10097963025659
        ]
      }
    },
    {
      "type": "Feature",
      "properties": {
        "norad_id": 30462,
        "name": "FENGYUN 1C DEB",
        "group": "fengyun-1c-debris",
        "lat": 72.95073910280203,
        "lon": 177.74805603959936,
        "alt_km": 963.5302300434432,
        "timestamp": "2025-12-04T21:36:16.149483+00:00",
        "meta_object_name": "FENGYUN 1C DEB",
        "meta_object_id": "1999-025AFZ",
        "meta_epoch": "2025-12-02T17:00:40.871232",
        "meta_mean_motion": 14.0625239,
        "meta_eccentricity": 0.01388398,
        "meta_inclination": 98.8161,
        "meta_ra_of_asc_node": 325.212,
        "meta_arg_of_pericenter": 278.5852,
        "meta_mean_anomaly": 258.6353,
        "meta_ephemeris_type": 0,
        "meta_classification_type": "U",
        "meta_norad_cat_id": 30462,
        "meta_element_set_no": 999,
        "meta_rev_at_epoch": 96652,
        "meta_bstar": 0.00035122116,
        "meta_mean_motion_dot": 5.87e-06,
        "meta_mean_motion_ddot": 0,
        "tle_line1": "1 30462U 99025AFZ 25336.70880638  .00000587  00000+0  35122-3 0  9994",
        "tle_line2": "2 30462  98.8161 325.2120 0138839 278.5852 258.6353 14.06252390966526"
      },
      "geometry": {
        "type": "Point",
        "coordinates": [
          177.74805603959936,
          72.95073910280203
        ]
      }
    },
    {
      "type": "Feature",
      "properties": {
        "norad_id": 30464,
        "name": "FENGYUN 1C DEB",
        "group": "fengyun-1c-debris",
        "lat": 44.944689791421894,
        "lon": 20.404432167723733,
        "alt_km": 898.7808936408128,
        "timestamp": "2025-12-04T21:36:16.149493+00:00",
        "meta_object_name": "FENGYUN 1C DEB",
        "meta_object_id": "1999-025AGB",
        "meta_epoch": "2025-12-04T15:18:14.414976",
        "meta_mean_motion": 14.10241066,
        "meta_eccentricity": 0.01082833,
        "meta_inclination": 98.8384,
        "meta_ra_of_asc_node": 29.0802,
        "meta_arg_of_pericenter": 281.6677,
        "meta_mean_anomaly": 230.9828,
        "meta_ephemeris_type": 0,
        "meta_classification_type": "U",
        "meta_norad_cat_id": 30464,
        "meta_element_set_no": 999,
        "meta_rev_at_epoch": 96949,
        "meta_bstar": 0.00014256003,
        "meta_mean_motion_dot": 2.22e-06,
        "meta_mean_motion_ddot": 0,
        "tle_line1": "1 30464U 99025AGB 25338.63766684  .00000222  00000+0  14256-3 0  9995",
        "tle_line2": "2 30464  98.8384  29.0802 0108283 281.6677 230.9828 14.10241066969493"
      },
      "geometry": {
        "type": "Point",
        "coordinates": [
          20.404432167723733,
          44.944689791421894
        ]
      }
    },
    {
      "type": "Feature",
      "properties": {
        "norad_id": 30465,
        "name": "FENGYUN 1C DEB",
        "group": "fengyun-1c-debris",
        "lat": -53.2988705839145,
        "lon": 78.99132518514972,
        "alt_km": 790.3109990593521,
        "timestamp": "2025-12-04T21:36:16.149503+00:00",
        "meta_object_name": "FENGYUN 1C DEB",
        "meta_object_id": "1999-025AGC",
        "meta_epoch": "2025-12-04T05:21:38.457792",
        "meta_mean_motion": 14.33742083,
        "meta_eccentricity": 0.00172255,
        "meta_inclination": 98.8305,
        "meta_ra_of_asc_node": 66.2635,
        "meta_arg_of_pericenter": 57.6494,
        "meta_mean_anomaly": 356.9319,
        "meta_ephemeris_type": 0,
        "meta_classification_type": "U",
        "meta_norad_cat_id": 30465,
        "meta_element_set_no": 999,
        "meta_rev_at_epoch": 97236,
        "meta_bstar": 0.0044022894,
        "meta_mean_motion_dot": 0.00012222,
        "meta_mean_motion_ddot": 0,
        "tle_line1": "1 30465U 99025AGC 25338.22336178  .00012222  00000+0  44023-2 0  9999",
        "tle_line2": "2 30465  98.8305  66.2635 0017225  57.6494 356.9319 14.33742083972361"
      },
      "geometry": {
        "type": "Point",
        "coordinates": [
          78.99132518514972,
          -53.2988705839145
        ]
      }
    },
    {
      "type": "Feature",
      "properties": {
        "norad_id": 30466,
        "name": "FENGYUN 1C DEB",
        "group": "fengyun-1c-debris",
        "lat": -27.077653189978736,
        "lon": -165.40224197560102,
        "alt_km": 901.8681939472708,
        "timestamp": "2025-12-04T21:36:16.149513+00:00",
        "meta_object_name": "FENGYUN 1C DEB",
        "meta_object_id": "1999-025AGD",
        "meta_epoch": "2025-12-04T14:35:09.492000",
        "meta_mean_motion": 14.22463419,
        "meta_eccentricity": 0.01170228,
        "meta_inclination": 98.656,
        "meta_ra_of_asc_node": 18.7771,
        "meta_arg_of_pericenter": 47.8909,
        "meta_mean_anomaly": 102.2678,
        "meta_ephemeris_type": 0,
        "meta_classification_type": "U",
        "meta_norad_cat_id": 30466,
        "meta_element_set_no": 999,
        "meta_rev_at_epoch": 97235,
        "meta_bstar": 0.0026293241,
        "meta_mean_motion_dot": 6.248e-05,
        "meta_mean_motion_ddot": 0,
        "tle_line1": "1 30466U 99025AGD 25338.60774875  .00006248  00000+0  26293-2 0  9992",
        "tle_line2": "2 30466  98.6560  18.7771 0117022  47.8909 102.2678 14.22463419972354"
      },
      "geometry": {
        "type": "Point",
        "coordinates": [
          -165.40224197560102,
          -27.077653189978736
        ]
      }
    },
    {
      "type": "Feature",
      "properties": {
        "norad_id": 30467,
        "name": "FENGYUN 1C DEB",
        "group": "fengyun-1c-debris",
        "lat": 33.1509313696046,
        "lon": -167.65607591154765,
        "alt_km": 785.5990793302017,
        "timestamp": "2025-12-04T21:36:16.149524+00:00",
        "meta_object_name": "FENGYUN 1C DEB",
        "meta_object_id": "1999-025AGE",
        "meta_epoch": "2025-12-04T14:43:14.236608",
        "meta_mean_motion": 14.17232261,
        "meta_eccentricity": 0.00653043,
        "meta_inclination": 98.6799,
        "meta_ra_of_asc_node": 6.3376,
        "meta_arg_of_pericenter": 150.5016,
        "meta_mean_anomaly": 333.28,
        "meta_ephemeris_type": 0,
        "meta_classification_type": "U",
        "meta_norad_cat_id": 30467,
        "meta_element_set_no": 999,
        "meta_rev_at_epoch": 97062,
        "meta_bstar": 0.0017549441,
        "meta_mean_motion_dot": 3.576e-05,
        "meta_mean_motion_ddot": 0,
        "tle_line1": "1 30467U 99025AGE 25338.61335922  .00003576  00000+0  17549-2 0  9995",
        "tle_line2": "2 30467  98.6799   6.3376 0065304 150.5016 333.2800 14.17232261970623"
      },
      "geometry": {
        "type": "Point",
        "coordinates": [
          -167.65607591154765,
          33.1509313696046
        ]
      }
    }
  ]
}